{"spkid": "50582160", "covariance": {"data": [["1.445423423277383E-12", "-1.627057995880183E-12", "-7.585279056468236E-11", "-2.231281298023516E-11", "1.427605769559612E-10", "6.176479284899558E-11"], ["-1.627057995880183E-12", "1.831521245847705E-12", "8.536417172111842E-11", "2.512781100484995E-11", "-1.607074682157784E-10", "-6.95502893536103E-11"], ["-7.585279056468236E-11", "8.536417172111842E-11", "4.147042642642782E-9", "1.071211548547045E-9", "-7.399388379786437E-9", "-2.998119799093764E-9"], ["-2.231281298023516E-11", "2.512781100484995E-11", "1.071211548547045E-9", "1.082314136703065E-9", "-2.882102509631492E-9", "-2.830169069351904E-9"], ["1.427605769559612E-10", "-1.607074682157784E-10", "-7.399388379786437E-9", "-2.882102509631492E-9", "1.475399333323006E-8", "7.849601646498313E-9"], ["6.176479284899558E-11", "-6.95502893536103E-11", "-2.998119799093764E-9", "-2.830169069351904E-9", "7.849601646498313E-9", "8.226594875921421E-9"]], "elements": [{"label": "e", "sigma": 1.20225763598215e-06, "name": "e", "title": "eccentricity", "value": ".6867102333247823", "units": null}, {"name": "q", "sigma": 1.35333707768896e-06, "title": "perihelion distance", "value": ".3523289090528511", "units": "au", "label": "q"}, {"name": "tp", "sigma": 6.43975359982258e-05, "title": "time of perihelion passage", "value": "2456348.610792649552", "units": "TDB", "label": "tp"}, {"units": "deg", "title": "longitude of the ascending node", "value": "205.8191536833174", "sigma": 3.28985430787302e-05, "name": "om", "label": "node"}, {"label": "peri", "title": "argument of perihelion", "value": "304.9403412673497", "units": "deg", "sigma": 0.000121466017195058, "name": "w"}, {"name": "i", "sigma": 9.0700578145464e-05, "title": "inclination", "value": "18.97024402413404", "units": "deg", "label": "i"}], "labels": ["e", "q", "tp", "node", "peri", "i"], "epoch": "2456456.5"}, "elements": [{"name": "e", "sigma": "1.2015E-6", "title": "eccentricity", "value": ".6867630396932818", "units": null, "label": "e"}, {"label": "a", "value": "1.124232924679417", "title": "semi-major axis", "units": "au", "sigma": "1.0129E-8", "name": "a"}, {"value": ".3521513040033122", "title": "perihelion distance", "units": "au", "name": "q", "sigma": "1.3526E-6", "label": "q"}, {"title": "inclination; angle with respect to x-y ecliptic plane", "value": "18.98744409988654", "units": "deg", "sigma": "9.09E-5", "name": "i", "label": "i"}, {"label": "node", "units": "deg", "title": "longitude of the ascending node", "value": "205.6890487361756", "sigma": "3.2624E-5", "name": "om"}, {"units": "deg", "title": "argument of perihelion", "value": "305.0831059566625", "sigma": ".00012127", "name": "w", "label": "peri"}, {"label": "M", "sigma": "8.5003E-5", "name": "ma", "units": "deg", "title": "mean anomaly", "value": "51.10252459829147"}, {"label": "tp", "value": "2461138.695125040982", "title": "time of perihelion passage", "units": "TDB", "sigma": ".00010214", "name": "tp"}, {"label": "period", "title": "sidereal orbital period", "value": "435.3944381446532", "units": "d", "sigma": "5.884E-6", "name": "per"}, {"units": "deg/d", "title": "mean motion", "value": ".8268364693266831", "sigma": "1.1174E-8", "name": "n", "label": "n"}, {"label": "Q", "name": "ad", "sigma": "1.7085E-8", "units": "au", "title": "aphelion distance", "value": "1.896314545355522"}], "epoch": "2461200.5"}